IRIDIUM 921 [-]         
1 24873U 97034E   23287.36808889  .00029772  00000+0  11422-2 0  9997
2 24873  86.3883  48.8488 0006770 105.7714 254.4279 15.26330563437390
IRIDIUM 26 [-]          
1 24903U 97043A   23287.48131976  .00000939  00000+0  31655-3 0  9995
2 24903  86.4021   7.2616 0002039  88.1065 272.0366 14.36040204368923
IRIDIUM 22 [-]          
1 24907U 97043E   23287.48712307  .00000923  00000+0  31791-3 0  9996
2 24907  86.4026  10.2982 0002215  92.3065 267.8384 14.34947660369029
DUMMY MASS 1 [-]        
1 24925U 97048A   23287.60529421  .00001159  00000+0  12986-3 0  9995
2 24925  86.3347  57.8631 0008177 138.2816 221.9033 14.85873364414285
DUMMY MASS 2 [-]        
1 24926U 97048B   23287.40001211  .00001205  00000+0  13597-3 0  9997
2 24926  86.3343  59.4583 0008570 149.4677 210.7047 14.85634219414041
IRIDIUM 29 [-]          
1 24944U 97051A   23287.56814098  .00000788  00000+0  26778-3 0  9993
2 24944  86.3993  40.2341 0002351  92.3096 267.8370 14.35405316365501
IRIDIUM 33 [-]          
1 24946U 97051C   23287.58063465  .00000767  00000+0  26705-3 0  9998
2 24946  86.3910  39.5049 0005792 274.8133  85.2401 14.34143580365068
IRIDIUM 28 [-]          
1 24948U 97051E   23287.59502781  .00001107  00000+0  37216-3 0  9998
2 24948  86.4002  38.0908 0001709  87.5869 272.5524 14.36339897366024
